     2.100          NAVIGATION                              RINEX VERSION / TYPE
fic2rin                                 08/31/2012 00:25:21 PGM / RUN BY / DATE
                                                            END OF HEADER
13 12  8 30  6  0  0.0  .184591393918D-03 -.250111042988D-11  .000000000000D+00
     .240000000000D+02 -.413437500000D+02  .401659587877D-08  .216699289874D+01
    -.204145908356D-05  .483101804275D-02  .105276703835D-04  .515362438965D+04
     .367200000000D+06  .447034835815D-07 -.671700916365D+00 -.484287738800D-07
     .984679329172D+00  .185156250000D+03  .207365044224D+01 -.766746223772D-08
    -.601810782120D-09  .100000000000D+01  .170300000000D+04  .000000000000D+00
     .240000000000D+01  .000000000000D+00 -.111758708954D-07  .240000000000D+02
     .360006000000D+06  .400000000000D+01
14 12  8 30  6  0  0.0  .211378093809D-03  .102318153949D-11  .000000000000D+00
     .820000000000D+02 -.425625000000D+02  .411409994020D-08  .242810011173D+01
    -.228546559811D-05  .676141958684D-02  .112410634756D-04  .515363443756D+04
     .367200000000D+06  .204890966415D-07 -.699049749999D+00 -.143423676491D-06
     .977447664287D+00  .168875000000D+03 -.205637946839D+01 -.767103381506D-08
    -.663241912402D-09  .100000000000D+01  .170300000000D+04  .000000000000D+00
     .240000000000D+01  .000000000000D+00 -.931322574615D-08  .820000000000D+02
     .360006000000D+06  .400000000000D+01
15 12  8 30  6  0  0.0 -.945003703237D-04 -.568434188608D-12  .000000000000D+00
     .970000000000D+02 -.434687500000D+02  .511557022689D-08  .199829170206D+01
    -.208802521229D-05  .457220489625D-02  .965595245361D-05  .515361766624D+04
     .367200000000D+06  .298023223877D-07 -.789959196720D+00  .199303030968D-06
     .944129482668D+00  .184968750000D+03  .335273130729D-01 -.828713090655D-08
    -.591096050095D-09  .100000000000D+01  .170300000000D+04  .000000000000D+00
     .240000000000D+01  .000000000000D+00 -.102445483208D-07  .970000000000D+02
     .360006000000D+06  .400000000000D+01
16 12  8 30  6  0  0.0 -.244903378189D-03 -.795807864051D-12  .000000000000D+00
     .340000000000D+02  .180000000000D+02  .443018453497D-08 -.267632783052D+01
     .890344381332D-06  .652499822900D-02  .172108411789D-05  .515373053932D+04
     .367200000000D+06 -.108033418655D-06  .137227002382D+01  .111758708954D-07
     .981396416654D+00  .359031250000D+03  .304264724133D-01 -.832534678411D-08
     .267868300647D-10  .100000000000D+01  .170300000000D+04  .000000000000D+00
     .240000000000D+01  .000000000000D+00 -.977888703346D-08  .340000000000D+02
     .360006000000D+06  .400000000000D+01
17 12  8 30  6  0  0.0  .100826378912D-03 -.318323145621D-11  .000000000000D+00
     .710000000000D+02 -.106750000000D+03  .413374361559D-08  .269385612727D+01
    -.547803938389D-05  .750151451211D-02  .876374542713D-05  .515373793602D+04
     .367200000000D+06  .372529029846D-08  .241231207453D+01 -.987201929092D-07
     .963685508227D+00  .210593750000D+03 -.229791763438D+01 -.787175646168D-08
    -.256082095419D-09  .100000000000D+01  .170300000000D+04  .000000000000D+00
     .240000000000D+01  .000000000000D+00 -.107102096081D-07  .710000000000D+02
     .360006000000D+06  .400000000000D+01
18 12  8 30  6  0  0.0  .212515238672D-03  .181898940355D-11  .000000000000D+00
     .740000000000D+02  .116562500000D+02  .583631453450D-08 -.213122479162D+01
     .553205609322D-06  .136439999333D-01  .327453017235D-05  .515371529388D+04
     .367200000000D+06  .180676579475D-06 -.180700129034D+01 -.204890966415D-07
     .928636137148D+00  .294656250000D+03 -.214855405691D+01 -.866036073879D-08
     .309298597814D-09  .100000000000D+01  .170300000000D+04  .000000000000D+00
     .240000000000D+01  .000000000000D+00 -.107102096081D-07  .740000000000D+02
     .360006000000D+06  .400000000000D+01
19 12  8 30  6  0  0.0 -.299103092402D-03 -.352429196937D-11  .000000000000D+00
     .630000000000D+02 -.115750000000D+03  .428767859902D-08  .186480643407D+01
    -.592693686485D-05  .856531923637D-02  .959448516369D-05  .515362330437D+04
     .367200000000D+06 -.745058059692D-07  .246507084138D+01  .372529029846D-07
     .961067506605D+00  .196312500000D+03  .237970715910D+00 -.803283459980D-08
    -.400730977768D-09  .100000000000D+01  .170300000000D+04  .000000000000D+00
     .240000000000D+01  .000000000000D+00 -.149011611938D-07  .630000000000D+02
     .360006000000D+06  .400000000000D+01
20 12  8 30  6  0  0.0  .671939924359D-04  .682121026330D-12  .000000000000D+00
     .680000000000D+02  .236250000000D+02  .587131599245D-08 -.170077829073D+01
     .135600566864D-05  .497780542355D-02  .357814133167D-05  .515363537407D+04
     .367200000000D+06  .838190317154D-07 -.186068698257D+01  .745058059692D-07
     .929208244910D+00  .293812500000D+03  .127865932520D+01 -.877179395186D-08
     .284654714154D-09  .100000000000D+01  .170300000000D+04  .000000000000D+00
     .340000000000D+01  .000000000000D+00 -.791624188423D-08  .680000000000D+02
     .360006000000D+06  .400000000000D+01
21 12  8 30  6  0  0.0 -.246433541179D-03 -.238742359215D-11  .000000000000D+00
     .183000000000D+03  .366875000000D+02  .505663920075D-08 -.978834762248D+00
     .224262475967D-05  .192977306433D-01  .113379210234D-04  .515380723953D+04
     .367200000000D+06  .279396772385D-06 -.285703548992D+01  .439584255219D-06
     .931857890913D+00  .144031250000D+03 -.222065673936D+01 -.840034990829D-08
     .601810782120D-09  .100000000000D+01  .170300000000D+04  .000000000000D+00
     .240000000000D+01  .000000000000D+00 -.111758708954D-07  .183000000000D+03
     .360006000000D+06  .400000000000D+01
22 12  8 30  6  0  0.0  .147170852870D-03  .341060513165D-12  .000000000000D+00
     .140000000000D+02  .140937500000D+02  .593989027742D-08 -.290315006906D+01
     .581145286560D-06  .631765183061D-02  .357814133167D-05  .515366595650D+04
     .367200000000D+06  .108033418655D-06 -.180382076746D+01 -.800937414169D-07
     .926363426618D+00  .292531250000D+03 -.200694803557D+01 -.878108005294D-08
     .188936441390D-09  .100000000000D+01  .170300000000D+04  .000000000000D+00
     .240000000000D+01  .000000000000D+00 -.172294676304D-07  .140000000000D+02
     .360006000000D+06  .400000000000D+01
23 12  8 30  6  0  0.0  .169825740159D-03 -.397903932026D-11  .000000000000D+00
     .980000000000D+02 -.474062500000D+02  .474376902559D-08  .146499075331D+01
    -.219792127609D-05  .822917488404D-02  .993162393570D-05  .515359119034D+04
     .367200000000D+06 -.111758708954D-07 -.752844125334D+00  .856816768646D-07
     .958961707713D+00  .188781250000D+03 -.294351776471D+01 -.813248160764D-08
    -.683242745517D-09  .100000000000D+01  .170300000000D+04  .000000000000D+00
     .240000000000D+01  .000000000000D+00 -.200234353542D-07  .980000000000D+02
     .360006000000D+06  .400000000000D+01
25 12  8 30  6  0  0.0  .411956571043D-04  .113686837722D-11  .000000000000D+00
     .102000000000D+03  .190000000000D+02  .466448000860D-08 -.165898393982D+01
     .104866921902D-05  .182210432831D-02  .182911753654D-05  .515366304207D+04
     .367200000000D+06  .111758708954D-07  .131886789779D+01 -.763684511185D-07
     .969469469380D+00  .351625000000D+03  .787519589180D+00 -.846713840459D-08
    -.107147320259D-10  .100000000000D+01  .170300000000D+04  .000000000000D+00
     .240000000000D+01  .000000000000D+00  .512227416039D-08  .102000000000D+03
     .360006000000D+06  .400000000000D+01
26 12  8 30  6  0  0.0 -.298019964248D-03  .127329258248D-10  .000000000000D+00
     .420000000000D+02 -.370312500000D+02  .413088635371D-08  .133180844394D+01
    -.203959643841D-05  .207609782228D-01  .110864639282D-04  .515366596222D+04
     .367200000000D+06 -.461935997009D-06 -.678093382683D+00 -.137835741043D-06
     .982186834218D+00  .184218750000D+03  .120478150431D+01 -.794354516626D-08
    -.558594696283D-09  .100000000000D+01  .170300000000D+04  .000000000000D+00
     .240000000000D+01  .000000000000D+00 -.605359673500D-08  .420000000000D+02
     .360006000000D+06  .400000000000D+01
27 12  8 30  6  0  0.0  .425715930760D-03  .420641299570D-11  .000000000000D+00
     .170000000000D+02  .102843750000D+03  .381301597028D-08  .215480896065D+01
     .542402267456D-05  .217499411665D-01  .104792416096D-04  .515369672966D+04
     .367200000000D+06  .294297933578D-06  .245058935825D+00  .838190317154D-07
     .982318537807D+00  .177843750000D+03 -.104112994388D+01 -.744673875799D-08
    -.717887045734D-10  .100000000000D+01  .170300000000D+04  .000000000000D+00
     .240000000000D+01  .000000000000D+00 -.419095158577D-08  .170000000000D+02
     .360006000000D+06  .400000000000D+01
28 12  8 30  6  0  0.0  .180302653462D-03  .375166564481D-11  .000000000000D+00
     .370000000000D+02  .101875000000D+02  .429375028051D-08 -.295656433147D+01
     .560656189919D-06  .180117246928D-01  .160560011864D-05  .515362923622D+04
     .367200000000D+06  .244006514549D-06  .137888004069D+01 -.838190317154D-07
     .979779021740D+00  .357718750000D+03 -.182210380998D+01 -.798104672835D-08
     .378587198248D-10  .100000000000D+01  .170300000000D+04  .000000000000D+00
     .240000000000D+01  .000000000000D+00 -.107102096081D-07  .370000000000D+02
     .360006000000D+06  .400000000000D+01
29 12  8 30  6  0  0.0  .349882524461D-03  .420641299570D-11  .000000000000D+00
     .300000000000D+01 -.113875000000D+03  .417874549009D-08 -.786937551131D+00
    -.585988163948D-05  .190215290058D-02  .977329909801D-05  .515380572319D+04
     .367200000000D+06 -.596046447754D-07  .242093264993D+01  .521540641785D-07
     .964258859469D+00  .192312500000D+03 -.106171603785D+01 -.801569102856D-08
    -.319656172105D-09  .100000000000D+01  .170300000000D+04  .000000000000D+00
     .240000000000D+01  .000000000000D+00 -.977888703346D-08  .300000000000D+01
     .360006000000D+06  .400000000000D+01
